HIERARCHY
ROOT LeftUpLeg
{
	OFFSET -0.855111 -0.040800 -0.443847
	CHANNELS 6 Xposition Yposition Zposition Xrotation Yrotation Zrotation
	JOINT LeftLowLeg
	{
		OFFSET -0.288317 -0.259266 -4.271904
		CHANNELS 3 Xrotation Yrotation Zrotation
		JOINT LeftFoot
		{
			OFFSET 0.071002 -1.713238 -4.510423
			CHANNELS 3 Xrotation Yrotation Zrotation
			JOINT LeftToe
			{
				OFFSET -0.418889 1.135683 -0.921323
				CHANNELS 3 Xrotation Yrotation Zrotation
				End Site
				{
					OFFSET -0.363018 1.461935 -0.212233
				}
			}
		}
	}
}
MOTION
Frames: 301
Frame Time: 0.033333
-0.855111 -0.040800 -0.443847 1.848530 -4.198551 -5.940204 15.117971 2.910447 -4.842067 -9.321926 -1.931427 -8.140289 -0.914880 3.967841 3.865320 
-0.855111 -0.040800 -0.443847 16.459474 3.320015 -3.891786 -15.175777 -0.610444 -1.083089 4.163074 -5.069859 -1.808897 0.545006 6.122445 -0.268792 
-0.855111 -0.040800 -0.443847 18.722927 5.516597 -3.816295 -20.257366 -2.111956 -0.712506 6.137053 -5.984199 0.131638 0.775661 6.576759 -2.059073 
-0.855111 -0.040800 -0.443847 18.156661 6.089417 -3.900560 -19.328392 -2.840375 -0.848433 5.177553 -6.495927 -0.114845 0.962193 6.391390 -2.988399 
-0.855111 -0.040800 -0.443847 18.810293 6.799546 -3.936508 -20.476882 -3.620077 -0.746752 5.073091 -7.019156 -0.968976 1.474902 6.215494 -3.719099 
-0.855111 -0.040800 -0.443847 19.411155 7.256881 -4.072650 -21.159619 -3.863001 -0.370023 4.643714 -7.544591 -1.914916 1.776038 6.377144 -4.056978 
-0.855111 -0.040800 -0.443847 19.349815 7.396598 -4.042171 -20.836467 -3.778134 -0.120539 4.186267 -7.779040 -2.637071 1.754497 6.600660 -4.039414 
-0.855111 -0.040800 -0.443847 19.062141 7.342239 -3.938370 -20.156322 -3.602132 0.054075 3.554673 -7.900314 -3.209712 1.570829 6.859674 -3.907175 
-0.855111 -0.040800 -0.443847 18.438912 7.089933 -3.781022 -18.985124 -3.298345 0.172032 2.948143 -7.930268 -3.557124 1.372741 7.029316 -3.699346 
-0.855111 -0.040800 -0.443847 17.504773 6.682714 -3.587694 -17.404026 -2.882757 0.223728 2.424520 -7.884219 -3.670063 1.200628 7.098910 -3.453301 
-0.855111 -0.040800 -0.443847 16.417039 6.211772 -3.369565 -15.708359 -2.425980 0.178484 1.900398 -7.766140 -3.606183 0.986213 7.171311 -3.202674 
-0.855111 -0.040800 -0.443847 15.324057 5.757933 -3.180132 -14.188112 -1.954069 0.149316 1.607970 -7.565976 -3.391341 0.831452 7.151657 -2.895016 
-0.855111 -0.040800 -0.443847 14.438658 5.393702 -3.014380 -13.081766 -1.642787 0.134470 1.316854 -7.362462 -3.173965 0.616969 7.096439 -2.609468 
-0.855111 -0.040800 -0.443847 13.733490 5.091421 -2.865123 -12.318881 -1.472271 0.146174 1.267017 -7.072424 -2.967769 0.342107 7.016306 -2.314306 
-0.855111 -0.040800 -0.443847 13.159988 4.828779 -2.722089 -11.803377 -1.417062 0.192004 1.428058 -6.689927 -2.823965 0.022209 6.905030 -1.983676 
-0.855111 -0.040800 -0.443847 12.648228 4.588698 -2.571509 -11.413360 -1.446075 0.276160 1.501052 -6.288875 -2.827742 -0.311062 6.739721 -1.597721 
-0.855111 -0.040800 -0.443847 11.900982 4.205728 -2.372475 -10.727333 -1.412715 0.342536 1.435716 -5.763145 -2.754799 -0.730599 6.271396 -1.047855 
-0.855111 -0.040800 -0.443847 11.250733 3.766475 -2.166275 -10.308910 -1.488674 0.427484 1.700864 -4.968833 -2.696766 -1.153343 5.691808 -0.488284 
-0.855111 -0.040800 -0.443847 10.464498 3.252814 -1.918753 -9.713816 -1.554286 0.498602 1.865567 -4.179414 -2.583276 -1.490087 5.011457 0.041302 
-0.855111 -0.040800 -0.443847 9.547536 2.680147 -1.636142 -8.922088 -1.591638 0.565490 1.879338 -3.421545 -2.428889 -1.739799 4.242568 0.525418 
-0.855111 -0.040800 -0.443847 8.741692 2.101256 -1.358400 -8.337606 -1.684756 0.681289 2.073024 -2.473973 -2.347272 -1.988811 3.396675 0.970061 
-0.855111 -0.040800 -0.443847 8.115383 1.551970 -1.112954 -8.000648 -1.795463 0.759361 2.178295 -1.657753 -2.037192 -2.079204 2.646666 1.215677 
-0.855111 -0.040800 -0.443847 7.462600 1.010478 -0.867972 -7.681762 -1.860169 0.765625 2.457448 -0.723373 -1.624808 -2.314137 1.911895 1.487403 
-0.855111 -0.040800 -0.443847 6.729013 0.483449 -0.628600 -7.207082 -1.838740 0.754911 2.513971 0.085863 -1.125362 -2.432097 1.225706 1.657206 
-0.855111 -0.040800 -0.443847 5.921726 -0.007115 -0.398026 -6.566645 -1.746751 0.753770 2.350959 0.720573 -0.567334 -2.392639 0.619910 1.696039 
-0.855111 -0.040800 -0.443847 5.109184 -0.423311 -0.175508 -5.914491 -1.655812 0.761868 2.367544 1.333990 -0.007144 -2.372926 0.122340 1.666847 
-0.855111 -0.040800 -0.443847 4.307098 -0.850852 0.058643 -5.226224 -1.470860 0.856265 2.244391 1.931011 0.681201 -2.231159 -0.235454 1.488825 
-0.855111 -0.040800 -0.443847 3.385629 -1.258219 0.354917 -4.288624 -1.255159 0.984943 1.964065 2.331910 1.196758 -2.097635 -0.564371 1.303009 
-0.855111 -0.040800 -0.443847 2.361600 -1.650696 0.684766 -3.119681 -0.987845 1.162558 1.491575 2.466848 1.636859 -1.815978 -0.851504 1.015102 
-0.855111 -0.040800 -0.443847 1.382294 -2.020507 1.014383 -1.985197 -0.694954 1.422965 1.032165 2.403545 2.017528 -1.357329 -1.041575 0.616550 
-0.855111 -0.040800 -0.443847 0.725379 -2.344634 1.307142 -1.398506 -0.452155 1.824809 1.029865 2.351667 2.277688 -0.818360 -1.034548 0.181674 
-0.855111 -0.040800 -0.443847 0.224360 -2.594630 1.467309 -0.997508 -0.300851 2.103601 1.129432 2.281162 2.240753 -0.591319 -1.038527 0.137782 
-0.855111 -0.040800 -0.443847 -0.002552 -2.692281 1.520136 -1.099970 -0.331228 2.300056 1.669534 2.240891 2.122773 -0.412436 -0.918366 0.121880 
-0.855111 -0.040800 -0.443847 -0.127828 -2.638909 1.528071 -1.402050 -0.457314 2.397495 2.295101 2.177301 1.897583 -0.349884 -0.770752 0.203959 
-0.855111 -0.040800 -0.443847 -0.225954 -2.453750 1.512658 -1.748471 -0.612087 2.401092 2.824359 2.063049 1.593181 -0.384829 -0.632559 0.373085 
-0.855111 -0.040800 -0.443847 -0.273649 -2.173136 1.455256 -2.131771 -0.749644 2.338923 3.249161 1.898019 1.291314 -0.410898 -0.480623 0.536381 
-0.855111 -0.040800 -0.443847 -0.385310 -1.891396 1.396726 -2.347146 -0.773029 2.192773 3.520156 1.807772 1.216020 -0.484648 -0.337723 0.633290 
-0.855111 -0.040800 -0.443847 -0.412949 -1.564927 1.313163 -2.682420 -0.779647 2.046522 3.731701 1.646051 1.237250 -0.465484 -0.111959 0.617811 
-0.855111 -0.040800 -0.443847 -0.218639 -1.176761 1.182652 -3.392852 -0.836594 1.915781 4.139407 1.473614 1.308002 -0.342954 0.156069 0.498333 
-0.855111 -0.040800 -0.443847 0.093213 -0.744785 1.025305 -4.293724 -0.937894 1.771670 4.667947 1.296778 1.379743 -0.195404 0.420153 0.330655 
-0.855111 -0.040800 -0.443847 0.174929 -0.319758 0.908042 -4.759982 -1.005860 1.544378 4.911085 1.066231 1.400665 -0.190844 0.629647 0.219225 
-0.855111 -0.040800 -0.443847 0.501181 0.084354 0.726628 -5.573959 -1.072480 1.343820 5.430380 0.875137 1.467133 -0.037146 0.863929 -0.043342 
-0.855111 -0.040800 -0.443847 0.814223 0.519523 0.529290 -6.272290 -1.126132 1.125387 5.723415 0.596084 1.522817 0.085092 1.049229 -0.273258 
-0.855111 -0.040800 -0.443847 1.358419 0.992537 0.279319 -7.270063 -1.229417 0.924464 6.060461 0.270776 1.589325 0.252515 1.233941 -0.549885 
-0.855111 -0.040800 -0.443847 2.148267 1.498969 -0.026110 -8.601898 -1.390991 0.721217 6.556937 -0.068074 1.657527 0.444288 1.436779 -0.860696 
-0.855111 -0.040800 -0.443847 2.967471 2.026515 -0.350969 -9.921692 -1.566341 0.444451 7.173017 -0.397767 1.685794 0.540989 1.648611 -1.100321 
-0.855111 -0.040800 -0.443847 5.569400 3.051973 -0.997669 -14.067487 -2.452607 0.478749 5.622270 -1.507153 2.270491 1.049174 1.827726 -1.664467 
-0.855111 -0.040800 -0.443847 8.788447 4.418875 -1.710709 -18.964544 -3.641509 0.526500 4.466020 -2.277616 2.000396 1.458882 2.102320 -2.118942 
-0.855111 -0.040800 -0.443847 12.220825 5.979563 -2.434616 -23.742614 -4.920214 0.592827 3.433134 -2.923156 1.441156 1.804403 2.386864 -2.413892 
-0.855111 -0.040800 -0.443847 15.402789 7.464131 -3.104150 -27.551914 -6.015511 0.692729 2.393325 -3.558488 0.869986 2.079317 2.612793 -2.504021 
-0.855111 -0.040800 -0.443847 17.801365 8.479848 -3.620551 -29.560683 -6.585802 0.844340 1.346436 -4.183335 0.286929 2.237925 2.728500 -2.348993 
-0.855111 -0.040800 -0.443847 19.611881 8.468211 -3.985466 -29.907090 -6.595476 1.275797 0.693398 -4.617762 -0.527843 2.376999 2.858358 -2.165369 
-0.855111 -0.040800 -0.443847 20.972813 8.007268 -4.258795 -29.013663 -6.291817 1.712917 0.033810 -5.042856 -1.348042 2.547657 2.955088 -2.056089 
-0.855111 -0.040800 -0.443847 21.552822 7.148599 -4.433642 -26.455537 -5.542614 2.042177 -0.632263 -5.458465 -2.173652 2.607079 2.752366 -1.796310 
-0.855111 -0.040800 -0.443847 21.463641 5.991115 -4.587551 -22.696070 -4.415775 2.196737 -1.304762 -5.864441 -3.004653 2.590041 2.273942 -1.375622 
-0.855111 -0.040800 -0.443847 21.252386 4.679256 -4.859124 -19.078904 -3.182238 2.226191 -1.983611 -6.260637 -3.841009 2.703714 1.835197 -0.996566 
-0.855111 -0.040800 -0.443847 19.519926 3.607486 -4.927897 -14.806158 -1.836109 1.747582 -2.668743 -6.646911 -4.682683 2.655602 1.170510 -0.293137 
-0.855111 -0.040800 -0.443847 17.402414 2.672509 -4.950235 -11.045631 -0.601540 0.962316 -3.360056 -7.023105 -5.529616 2.612855 0.711151 0.375563 
-0.855111 -0.040800 -0.443847 15.437631 1.928444 -4.943953 -8.340631 0.303659 0.144524 -4.057466 -7.389084 -6.381758 2.609897 0.576147 0.868377 
-0.855111 -0.040800 -0.443847 13.983263 1.370331 -4.952853 -6.942545 0.832838 -0.520357 -4.760879 -7.744699 -7.239045 2.637374 0.747502 1.166613 
-0.855111 -0.040800 -0.443847 13.217315 0.935954 -5.062538 -6.796729 1.072102 -0.975630 -5.470188 -8.089811 -8.101402 2.646054 1.069331 1.373960 
-0.855111 -0.040800 -0.443847 12.845739 0.671743 -5.161547 -6.892133 1.156219 -1.338306 -4.846493 -7.776530 -7.601074 2.662814 1.346925 1.330734 
-0.855111 -0.040800 -0.443847 12.217498 0.426920 -5.145809 -6.457942 1.232263 -1.744515 -4.417753 -7.405948 -7.151196 2.501608 1.383785 1.610342 
-0.855111 -0.040800 -0.443847 11.433404 0.213502 -5.053839 -5.761417 1.278007 -2.101354 -4.094505 -7.012703 -6.863753 2.287285 1.314132 1.995539 
-0.855111 -0.040800 -0.443847 10.617918 0.027270 -4.909987 -5.032098 1.262764 -2.377484 -3.775008 -6.615165 -6.718265 2.086741 1.187564 2.333757 
-0.855111 -0.040800 -0.443847 9.919444 -0.151651 -4.725022 -4.461656 1.144665 -2.603409 -3.347986 -6.214259 -6.562822 1.908621 0.968464 2.537055 
-0.855111 -0.040800 -0.443847 9.132489 -0.235427 -4.397397 -3.858008 0.880592 -2.790445 -3.153820 -5.672828 -6.259077 1.508223 0.353440 2.759249 
-0.855111 -0.040800 -0.443847 8.506485 -0.333334 -3.962116 -3.649581 0.566089 -2.933442 -2.763580 -4.907237 -5.680671 1.066025 -0.112741 2.577873 
-0.855111 -0.040800 -0.443847 7.762809 -0.383922 -3.440673 -3.370117 0.308473 -2.940028 -2.486133 -4.112063 -4.948481 0.538091 -0.376830 2.069520 
-0.855111 -0.040800 -0.443847 6.824570 -0.412478 -2.870198 -2.891759 0.173305 -2.830625 -2.272378 -3.310204 -4.017478 -0.041084 -0.488288 1.406506 
-0.855111 -0.040800 -0.443847 5.818531 -0.526114 -2.305864 -2.426543 0.183904 -2.742289 -1.727488 -2.338302 -2.692193 -0.562549 -0.604164 0.854831 
-0.855111 -0.040800 -0.443847 4.767538 -0.436685 -1.787141 -1.936176 0.105930 -2.330775 -1.390038 -1.655775 -1.899076 -0.508732 -1.317871 0.464559 
-0.855111 -0.040800 -0.443847 3.669027 -0.403991 -1.326950 -1.269305 0.034953 -2.147097 -1.362015 -1.286218 -1.198190 -0.385791 -1.754405 0.105236 
-0.855111 -0.040800 -0.443847 2.743599 -0.408419 -0.984025 -0.724687 -0.025846 -2.015827 -1.363971 -1.037651 -0.596798 -0.252654 -1.946281 -0.226382 
-0.855111 -0.040800 -0.443847 2.074470 -0.415994 -0.774970 -0.421298 -0.085522 -1.888908 -1.176596 -0.846693 -0.108484 -0.162345 -1.907463 -0.487559 
-0.855111 -0.040800 -0.443847 1.607570 -0.383099 -0.674115 -0.298649 -0.166798 -1.844963 -0.636666 -0.782178 0.250292 -0.162138 -1.633579 -0.588574 
-0.855111 -0.040800 -0.443847 1.492363 -0.236197 -0.783012 -0.514113 -0.384921 -2.152872 -0.425371 -0.761702 0.657124 -0.102079 -1.242165 -0.472718 
-0.855111 -0.040800 -0.443847 1.458830 -0.099691 -0.978489 -0.727015 -0.567942 -2.621354 -0.277659 -0.914537 0.803136 -0.066096 -1.157652 -0.288916 
-0.855111 -0.040800 -0.443847 1.509877 0.004422 -1.219575 -0.936106 -0.654142 -3.094264 -0.197007 -1.194727 0.797364 0.035696 -1.065309 -0.236848 
-0.855111 -0.040800 -0.443847 1.630823 0.074461 -1.463607 -1.139835 -0.631077 -3.461767 -0.195784 -1.556532 0.665760 0.132998 -0.809562 -0.359709 
-0.855111 -0.040800 -0.443847 1.789692 0.129533 -1.666208 -1.338359 -0.535091 -3.660817 -0.295292 -1.954695 0.351261 -0.003877 -0.393008 -0.542134 
-0.855111 -0.040800 -0.443847 2.228416 0.295305 -1.908683 -2.049266 -0.529728 -3.628374 -0.068494 -2.293716 0.051074 -0.021591 0.043387 -0.925289 
-0.855111 -0.040800 -0.443847 2.834225 0.563890 -2.148804 -3.067960 -0.599638 -3.585443 0.211706 -2.591173 -0.108522 0.092722 0.401754 -1.302214 
-0.855111 -0.040800 -0.443847 3.471913 0.916236 -2.374755 -4.131066 -0.734463 -3.587333 0.526791 -2.861057 -0.258280 0.237800 0.637275 -1.590594 
-0.855111 -0.040800 -0.443847 4.057908 1.310916 -2.586478 -5.076263 -0.906007 -3.681515 0.808530 -3.114583 -0.473247 0.368502 0.766784 -1.759171 
-0.855111 -0.040800 -0.443847 4.560229 1.683204 -2.795392 -5.842195 -1.069431 -3.906805 0.939813 -3.358960 -0.773252 0.497240 0.867520 -1.829102 
-0.855111 -0.040800 -0.443847 4.722788 1.846907 -2.932217 -5.921031 -0.978252 -4.055349 0.766973 -3.506645 -1.036627 0.537013 0.795009 -1.789270 
-0.855111 -0.040800 -0.443847 4.906324 1.876632 -3.059819 -6.033105 -0.837410 -4.285078 0.726163 -3.485168 -0.968089 0.725456 0.918800 -1.769303 
-0.855111 -0.040800 -0.443847 4.950857 1.812312 -3.117488 -5.888304 -0.699568 -4.487351 0.569741 -3.441615 -0.904932 0.820439 0.817129 -1.680192 
-0.855111 -0.040800 -0.443847 4.855117 1.678695 -3.103524 -5.475266 -0.614401 -4.623529 0.293300 -3.407843 -0.908068 0.787460 0.375240 -1.546674 
-0.855111 -0.040800 -0.443847 4.776232 1.484814 -3.074651 -5.060743 -0.626143 -4.722771 0.135468 -3.301753 -0.761707 0.797664 -0.214252 -1.508029 
-0.855111 -0.040800 -0.443847 4.725852 1.260626 -3.106340 -4.733564 -0.702887 -4.705221 0.088067 -3.126082 -0.964209 0.894021 -1.095731 -1.123743 
-0.855111 -0.040800 -0.443847 4.758101 0.995260 -3.147203 -4.517675 -0.712016 -4.597975 -0.071265 -2.980806 -1.385897 1.077343 -1.747667 -0.682100 
-0.855111 -0.040800 -0.443847 4.865039 0.696920 -3.206819 -4.449454 -0.658188 -4.479396 -0.284982 -2.848199 -1.906354 1.262410 -2.095351 -0.195244 
-0.855111 -0.040800 -0.443847 5.004369 0.403250 -3.286877 -4.477437 -0.566465 -4.379258 -0.461764 -2.740023 -2.393005 1.464093 -2.207610 0.277329 
-0.855111 -0.040800 -0.443847 5.099658 0.181504 -3.381858 -4.462164 -0.481429 -4.279241 -0.476887 -2.698532 -2.701319 1.800752 -2.295352 0.631713 
-0.855111 -0.040800 -0.443847 4.853226 -0.093877 -3.413159 -3.975736 -0.245156 -4.266783 -0.552723 -2.635087 -2.949317 1.925859 -2.155980 1.226444 
-0.855111 -0.040800 -0.443847 4.565210 -0.433347 -3.423188 -3.505775 0.093956 -4.239576 -0.579910 -2.570509 -3.285889 1.990630 -1.587167 1.766733 
-0.855111 -0.040800 -0.443847 4.284190 -0.713817 -3.406360 -3.103484 0.331256 -4.198200 -0.650025 -2.495019 -3.581212 1.996003 -1.068249 2.211136 
-0.855111 -0.040800 -0.443847 4.048794 -0.908286 -3.364752 -2.802613 0.414353 -4.132730 -0.787150 -2.398098 -3.776357 1.990630 -0.778694 2.549876 
-0.855111 -0.040800 -0.443847 3.887616 -1.085666 -3.309544 -2.619670 0.443171 -4.026073 -0.947697 -2.269309 -3.883404 2.063000 -0.597616 2.803296 
-0.855111 -0.040800 -0.443847 3.873732 -1.244584 -3.169882 -2.704497 0.405965 -3.851253 -0.866024 -1.973479 -3.965616 1.825120 -0.273086 3.016356 
-0.855111 -0.040800 -0.443847 3.788321 -1.333172 -2.992156 -2.663527 0.291951 -3.671252 -0.972732 -1.681877 -3.985104 1.680866 -0.272210 3.183441 
-0.855111 -0.040800 -0.443847 3.602003 -1.392578 -2.776766 -2.472572 0.190865 -3.507524 -1.013906 -1.415906 -3.835139 1.542489 -0.316803 3.254923 
-0.855111 -0.040800 -0.443847 3.375240 -1.430732 -2.529311 -2.244321 0.128204 -3.321601 -0.988139 -1.161576 -3.549152 1.366976 -0.232723 3.196108 
-0.855111 -0.040800 -0.443847 3.258056 -1.421277 -2.260330 -2.227656 0.064511 -3.015280 -1.145150 -0.870713 -3.297606 1.157984 0.050549 2.986544 
-0.855111 -0.040800 -0.443847 2.672248 -1.325889 -1.874558 -1.303436 0.193459 -2.464897 -1.527273 -0.846005 -2.580616 0.701583 -0.137024 2.286662 
-0.855111 -0.040800 -0.443847 2.105226 -1.251069 -1.403827 -0.509360 0.390122 -1.819598 -1.803901 -0.638647 -1.811323 0.452960 -0.334503 1.520829 
-0.855111 -0.040800 -0.443847 1.646175 -1.180160 -0.961579 -0.027227 0.551236 -1.145688 -2.003800 -0.325502 -1.196548 0.327415 -0.376912 0.950050 
-0.855111 -0.040800 -0.443847 1.284878 -1.073000 -0.625474 0.185139 0.602323 -0.565951 -2.051951 -0.051722 -0.705405 0.299075 -0.277486 0.613049 
-0.855111 -0.040800 -0.443847 0.911547 -0.868874 -0.436816 0.392355 0.504730 -0.262825 -1.771221 -0.029797 -0.069237 0.395928 -0.227633 0.325685 
-0.855111 -0.040800 -0.443847 0.746273 -0.617415 -0.299116 0.136123 0.202897 -0.260458 -1.248902 0.149684 0.629803 0.252777 -0.309743 0.195291 
-0.855111 -0.040800 -0.443847 0.744900 -0.389917 -0.214755 -0.276336 -0.110867 -0.268525 -0.895407 0.288260 1.099917 0.281932 -0.339121 0.083958 
-0.855111 -0.040800 -0.443847 0.715184 -0.219723 -0.150531 -0.523120 -0.334861 -0.299402 -0.619968 0.340609 1.411331 0.324734 -0.470212 0.032279 
-0.855111 -0.040800 -0.443847 0.652605 -0.105463 -0.089315 -0.617507 -0.452860 -0.294046 -0.333280 0.358074 1.519818 0.323589 -0.632026 0.013490 
-0.855111 -0.040800 -0.443847 0.740443 -0.010398 -0.031415 -0.907713 -0.534502 -0.126091 0.052511 0.485562 1.265849 0.322087 -0.528641 -0.066345 
-0.855111 -0.040800 -0.443847 0.654162 0.050639 0.013652 -0.812976 -0.479397 -0.006864 0.091693 0.336130 1.004590 0.349767 -0.510918 -0.133324 
-0.855111 -0.040800 -0.443847 0.561862 0.076403 0.040264 -0.717359 -0.361980 0.100696 0.056714 0.217210 0.730879 0.352949 -0.370921 -0.209409 
-0.855111 -0.040800 -0.443847 0.412630 0.074688 0.051656 -0.528018 -0.218729 0.145419 0.001963 0.100640 0.438925 0.296204 -0.208471 -0.216343 
-0.855111 -0.040800 -0.443847 0.206591 0.049029 0.042512 -0.251440 -0.085581 0.107124 -0.028312 0.005829 0.166716 0.170893 -0.079899 -0.133199 
-0.855111 -0.040800 -0.443847 -0.005085 -0.001205 -0.001048 0.006195 0.002100 -0.002640 0.000696 -0.000145 -0.004100 -0.004203 0.001960 0.003280 
-0.855111 -0.040800 -0.443847 -0.083688 -0.087536 -0.059720 0.042302 -0.006811 -0.170873 -0.012297 0.105700 -0.193293 -0.191931 0.085260 0.239571 
-0.855111 -0.040800 -0.443847 -0.185907 -0.198598 -0.125638 0.114201 -0.045106 -0.405311 0.066327 0.259853 -0.241243 -0.323548 -0.030843 0.569071 
-0.855111 -0.040800 -0.443847 -0.215115 -0.344844 -0.158474 0.056974 -0.094624 -0.618726 0.146033 0.577309 -0.294393 -0.453258 -0.106202 0.914271 
-0.855111 -0.040800 -0.443847 -0.149972 -0.505274 -0.149935 -0.174096 -0.173782 -0.775914 0.215721 1.035187 -0.424248 -0.597196 -0.152793 1.275485 
-0.855111 -0.040800 -0.443847 -0.044629 -0.627204 -0.124291 -0.503808 -0.338899 -0.893841 0.342836 1.472581 -0.627800 -0.729320 -0.434615 1.729420 
-0.855111 -0.040800 -0.443847 -0.191006 -0.717537 -0.083916 -0.260286 -0.469328 -0.964824 0.084534 1.596755 -0.866991 -0.617765 -1.049781 2.142708 
-0.855111 -0.040800 -0.443847 -0.016108 -0.763945 -0.109952 -0.500701 -0.602415 -0.930389 -0.021797 1.592586 -1.142766 -0.180484 -1.378201 2.271548 
-0.855111 -0.040800 -0.443847 0.367802 -0.745245 -0.228989 -1.013941 -0.711390 -0.885827 -0.019471 1.310306 -1.416391 0.512963 -1.458801 2.221562 
-0.855111 -0.040800 -0.443847 0.756512 -0.690128 -0.408366 -1.476413 -0.771681 -0.951617 -0.019087 0.832485 -1.680228 1.176419 -1.480591 2.188748 
-0.855111 -0.040800 -0.443847 0.853397 -0.674671 -0.554661 -1.451709 -0.761315 -1.273816 -0.195978 0.474931 -1.959936 1.305365 -1.778438 2.465210 
-0.855111 -0.040800 -0.443847 1.142021 -0.650901 -0.797252 -1.654671 -0.721609 -1.563186 -0.376259 -0.041599 -2.241090 1.678141 -1.722465 2.380535 
-0.855111 -0.040800 -0.443847 1.337598 -0.615336 -0.967772 -1.653985 -0.632989 -1.802428 -0.557958 -0.445844 -2.573921 1.812070 -1.753291 2.320149 
-0.855111 -0.040800 -0.443847 1.558543 -0.537086 -1.096474 -1.687651 -0.560294 -2.044873 -0.640826 -0.809717 -2.756030 1.985789 -1.873908 2.110058 
-0.855111 -0.040800 -0.443847 1.806094 -0.396020 -1.190262 -1.778313 -0.532432 -2.292768 -0.686994 -1.171846 -2.771922 2.252623 -2.132889 1.738589 
-0.855111 -0.040800 -0.443847 1.964120 -0.181845 -1.232153 -1.733038 -0.544793 -2.497761 -0.923543 -1.535981 -2.795391 2.440597 -2.621409 1.355950 
-0.855111 -0.040800 -0.443847 2.791174 0.149517 -1.342075 -2.749491 -0.653826 -2.342855 -0.873819 -1.876308 -2.965406 2.559102 -2.316775 0.465444 
-0.855111 -0.040800 -0.443847 3.956619 0.647171 -1.553407 -4.276991 -0.863694 -2.007000 -0.680603 -2.325836 -3.284055 2.733511 -2.261298 -0.334752 
-0.855111 -0.040800 -0.443847 5.571621 1.271598 -1.877254 -6.536828 -1.193662 -1.619042 -0.226724 -2.877683 -3.669129 2.983743 -2.278175 -1.045551 
-0.855111 -0.040800 -0.443847 7.473122 1.953953 -2.262323 -9.221344 -1.573103 -1.255368 0.376306 -3.462652 -4.153476 3.250362 -2.170121 -1.616747 
-0.855111 -0.040800 -0.443847 9.220610 2.606470 -2.583051 -11.494501 -1.835207 -0.920445 0.786875 -3.946605 -4.892777 3.392678 -1.716969 -1.947320 
-0.855111 -0.040800 -0.443847 10.488678 3.244771 -2.792381 -12.829403 -1.941886 -0.798007 0.645396 -4.388406 -5.696039 3.425796 -1.387097 -1.948879 
-0.855111 -0.040800 -0.443847 11.103540 3.773504 -2.904245 -13.147233 -1.854832 -0.872411 0.351716 -4.759582 -6.333828 3.424219 -1.109115 -1.833464 
-0.855111 -0.040800 -0.443847 11.417597 4.152456 -2.963937 -13.109629 -1.674707 -1.021501 -0.022838 -5.011028 -6.803288 3.411986 -0.769644 -1.727424 
-0.855111 -0.040800 -0.443847 11.658956 4.395130 -3.002126 -13.126952 -1.490470 -1.174610 -0.298992 -5.131476 -7.158177 3.380038 -0.347036 -1.671377 
-0.855111 -0.040800 -0.443847 11.930788 4.570935 -3.030947 -13.358626 -1.377078 -1.310432 -0.190590 -5.147299 -7.510110 3.285451 0.088529 -1.619674 
-0.855111 -0.040800 -0.443847 12.487368 4.713044 -3.099843 -14.181936 -1.444377 -1.381646 0.183337 -5.075582 -7.789526 3.201121 0.434460 -1.611797 
-0.855111 -0.040800 -0.443847 12.851040 4.782582 -3.144130 -14.709504 -1.487216 -1.452949 0.218171 -4.987188 -8.086900 3.135823 0.595018 -1.484381 
-0.855111 -0.040800 -0.443847 13.204240 4.819017 -3.155107 -15.267187 -1.567336 -1.477074 0.486747 -4.845703 -8.380287 3.021890 0.822374 -1.376720 
-0.855111 -0.040800 -0.443847 13.637324 4.852250 -3.136828 -16.004001 -1.710516 -1.433346 1.025664 -4.652096 -8.693645 2.861815 1.152135 -1.322505 
-0.855111 -0.040800 -0.443847 14.148446 4.902653 -3.105591 -16.891862 -1.906736 -1.326628 1.335514 -4.438435 -9.093255 2.728111 1.403182 -1.251589 
-0.855111 -0.040800 -0.443847 14.430255 4.905394 -3.004676 -17.481978 -2.062500 -1.224327 1.612106 -4.227387 -9.409088 2.548936 1.662100 -1.163531 
-0.855111 -0.040800 -0.443847 14.493513 4.867211 -2.852423 -17.734226 -2.161148 -1.082894 1.787064 -4.043942 -9.721893 2.383926 1.817338 -1.064324 
-0.855111 -0.040800 -0.443847 14.207007 4.766814 -2.640766 -17.430919 -2.144624 -0.907294 1.783389 -3.912168 -9.996640 2.251219 1.749581 -0.932383 
-0.855111 -0.040800 -0.443847 13.626328 4.588284 -2.383657 -16.648072 -2.006091 -0.686824 1.523479 -3.810845 -10.215553 2.153269 1.529849 -0.806895 
-0.855111 -0.040800 -0.443847 12.993595 4.323503 -2.116116 -15.755008 -1.791871 -0.393749 0.929712 -3.674054 -10.377812 2.075345 1.419664 -0.786867 
-0.855111 -0.040800 -0.443847 12.023361 3.986891 -1.786999 -14.321285 -1.451730 -0.055003 0.520820 -3.571874 -10.566840 1.987660 0.966446 -0.601592 
-0.855111 -0.040800 -0.443847 11.209581 3.568204 -1.503552 -13.230949 -1.150039 0.256612 0.133781 -3.300472 -10.560132 1.914186 0.622666 -0.472691 
-0.855111 -0.040800 -0.443847 10.560708 3.091668 -1.248023 -12.432228 -0.888660 0.549910 -0.168147 -2.909857 -10.420835 1.797322 0.457741 -0.365394 
-0.855111 -0.040800 -0.443847 10.017323 2.592321 -1.006016 -11.781971 -0.671676 0.813773 -0.318814 -2.472984 -10.197863 1.623461 0.422107 -0.244761 
-0.855111 -0.040800 -0.443847 9.452114 2.115599 -0.768069 -11.045417 -0.505112 1.016751 -0.248182 -2.085780 -9.925873 1.423252 0.347346 -0.075959 
-0.855111 -0.040800 -0.443847 9.114413 1.627291 -0.527504 -10.569054 -0.427158 1.179730 -0.336009 -1.610558 -9.670365 1.203141 0.544230 0.070370 
-0.855111 -0.040800 -0.443847 8.815652 1.169516 -0.314451 -10.174770 -0.402024 1.329496 -0.381298 -1.108584 -9.431473 0.936939 0.504563 0.358475 
-0.855111 -0.040800 -0.443847 8.526168 0.733033 -0.129188 -9.802057 -0.397627 1.474274 -0.441692 -0.636218 -9.149233 0.707140 0.345585 0.660367 
-0.855111 -0.040800 -0.443847 8.288803 0.319420 0.040116 -9.514554 -0.418407 1.624001 -0.444519 -0.180742 -8.840750 0.518764 0.202268 0.912529 
-0.855111 -0.040800 -0.443847 8.219015 -0.058492 0.218802 -9.499761 -0.506176 1.790693 -0.186007 0.341297 -8.602905 0.299188 0.225663 1.115563 
-0.855111 -0.040800 -0.443847 8.355729 -0.346934 0.337505 -9.782635 -0.705470 1.983379 0.078458 0.821494 -8.363198 0.180632 0.179111 1.241451 
-0.855111 -0.040800 -0.443847 8.413914 -0.566317 0.445262 -9.946633 -0.897141 2.107020 0.285532 1.193605 -8.070124 0.073812 0.014639 1.413078 
-0.855111 -0.040800 -0.443847 8.431484 -0.742208 0.551484 -10.045413 -1.063766 2.209030 0.549170 1.499188 -7.769606 -0.008120 -0.130430 1.533554 
-0.855111 -0.040800 -0.443847 8.444647 -0.879853 0.659175 -10.139715 -1.213281 2.306522 0.805649 1.756950 -7.487699 -0.067195 -0.206402 1.568369 
-0.855111 -0.040800 -0.443847 8.487727 -0.964203 0.764734 -10.297515 -1.378703 2.386200 0.813404 1.960786 -7.228217 -0.119587 -0.251556 1.544896 
-0.855111 -0.040800 -0.443847 8.208292 -0.986945 0.863768 -9.917780 -1.460908 2.405982 0.765669 1.991976 -6.930232 -0.111523 -0.543727 1.536654 
-0.855111 -0.040800 -0.443847 7.875156 -0.995375 0.966762 -9.469939 -1.479464 2.402654 0.567468 1.966215 -6.508589 -0.086326 -0.751881 1.403257 
-0.855111 -0.040800 -0.443847 7.443891 -0.961803 1.058272 -8.846024 -1.446153 2.384013 0.445996 1.841541 -5.978658 0.030683 -0.962509 1.161791 
-0.855111 -0.040800 -0.443847 6.916856 -0.872400 1.129241 -8.047401 -1.389339 2.337604 0.349783 1.608116 -5.358831 0.243743 -1.208838 0.843655 
-0.855111 -0.040800 -0.443847 6.343282 -0.727065 1.176757 -7.184783 -1.354552 2.231642 -0.051989 1.281483 -4.672319 0.487086 -1.469892 0.493788 
-0.855111 -0.040800 -0.443847 5.967253 -0.637862 1.193981 -6.637657 -1.170190 2.149991 -0.110348 1.073591 -3.957240 0.518021 -0.967264 -0.015847 
-0.855111 -0.040800 -0.443847 5.480018 -0.450539 1.161346 -5.970947 -1.085508 1.932796 -0.368351 0.781492 -3.120709 0.526782 -0.818532 -0.336275 
-0.855111 -0.040800 -0.443847 5.055088 -0.219538 1.074123 -5.463784 -1.079073 1.628390 -0.356822 0.551932 -2.234107 0.498700 -0.549239 -0.613441 
-0.855111 -0.040800 -0.443847 4.732932 0.031519 0.938232 -5.177775 -1.117584 1.256185 -0.062310 0.412459 -1.309679 0.455181 -0.098682 -0.890248 
-0.855111 -0.040800 -0.443847 4.420860 0.309972 0.772021 -4.956495 -1.159041 0.806349 0.078376 0.253972 -0.305184 0.446862 0.179751 -1.107393 
-0.855111 -0.040800 -0.443847 4.361337 0.659091 0.527733 -5.133011 -1.274852 0.346479 0.335920 0.080437 0.798227 0.618527 0.402391 -1.425960 
-0.855111 -0.040800 -0.443847 4.163996 0.959630 0.312699 -4.948978 -1.355845 -0.145152 0.386819 -0.041750 1.570096 0.691228 0.534628 -1.456113 
-0.855111 -0.040800 -0.443847 4.110972 1.253655 0.060024 -4.967229 -1.470118 -0.615351 0.523638 -0.133571 2.142864 0.773657 0.566716 -1.368276 
-0.855111 -0.040800 -0.443847 4.284579 1.537319 -0.243678 -5.355388 -1.610305 -1.040134 0.844128 -0.196140 2.567294 0.895235 0.532293 -1.244128 
-0.855111 -0.040800 -0.443847 4.566017 1.762732 -0.555546 -5.884532 -1.702149 -1.422584 1.250297 -0.217756 2.811269 1.005012 0.508803 -1.076473 
-0.855111 -0.040800 -0.443847 4.842167 2.039057 -0.838802 -6.440803 -1.798895 -1.676558 1.528459 -0.400967 2.797258 1.115142 0.408138 -0.915647 
-0.855111 -0.040800 -0.443847 5.192630 2.325241 -1.080968 -7.128215 -1.901568 -1.821951 1.780196 -0.547784 2.533109 1.261201 0.324799 -0.744572 
-0.855111 -0.040800 -0.443847 5.444570 2.614026 -1.278690 -7.611224 -1.942475 -1.927610 1.923349 -0.798670 2.163180 1.435761 0.321268 -0.645535 
-0.855111 -0.040800 -0.443847 5.537076 2.892676 -1.431458 -7.770669 -1.899600 -2.020499 1.955143 -1.154559 1.746490 1.599348 0.392810 -0.619678 
-0.855111 -0.040800 -0.443847 5.521258 3.141749 -1.543077 -7.703958 -1.796363 -2.087897 1.953639 -1.479013 1.256740 1.680723 0.468065 -0.586323 
-0.855111 -0.040800 -0.443847 5.581491 3.360996 -1.653323 -7.718966 -1.698014 -2.149193 1.797661 -1.830539 0.695083 1.843316 0.577506 -0.596753 
-0.855111 -0.040800 -0.443847 5.643700 3.568332 -1.743982 -7.726415 -1.642834 -2.199459 1.568398 -2.164396 0.132591 1.910030 0.635040 -0.596611 
-0.855111 -0.040800 -0.443847 5.708801 3.722239 -1.816325 -7.751165 -1.576768 -2.231208 1.434912 -2.419362 -0.404482 1.964792 0.731943 -0.603889 
-0.855111 -0.040800 -0.443847 5.809698 3.818148 -1.875259 -7.868637 -1.502203 -2.241665 1.549712 -2.542246 -0.885305 2.034124 0.880293 -0.607190 
-0.855111 -0.040800 -0.443847 6.011439 3.888352 -1.929536 -8.204867 -1.478030 -2.232802 2.048066 -2.486506 -1.276858 2.086980 1.013051 -0.565268 
-0.855111 -0.040800 -0.443847 6.046837 3.881582 -1.940107 -8.308193 -1.384927 -2.280051 2.051156 -2.475802 -1.582069 2.039011 1.215870 -0.444388 
-0.855111 -0.040800 -0.443847 5.971284 3.835647 -1.905920 -8.222597 -1.305888 -2.329221 2.136173 -2.410306 -1.804592 1.957578 1.374385 -0.377344 
-0.855111 -0.040800 -0.443847 5.661771 3.726403 -1.837936 -7.731502 -1.173460 -2.393216 2.055311 -2.370316 -1.953147 1.811280 1.392513 -0.271061 
-0.855111 -0.040800 -0.443847 5.192964 3.546887 -1.743571 -6.967619 -0.990939 -2.446426 1.804582 -2.328575 -2.067730 1.610232 1.314911 -0.139643 
-0.855111 -0.040800 -0.443847 4.837046 3.308106 -1.625192 -6.413329 -0.830378 -2.420971 1.624548 -2.151592 -2.219502 1.405510 1.327878 -0.103307 
-0.855111 -0.040800 -0.443847 4.218013 2.921067 -1.430840 -5.465642 -0.623180 -2.544156 1.314570 -1.932761 -2.089705 1.101983 1.047474 0.029593 
-0.855111 -0.040800 -0.443847 3.775023 2.440192 -1.262447 -4.834813 -0.450607 -2.597224 1.144803 -1.516595 -2.007428 0.846030 0.776882 0.245810 
-0.855111 -0.040800 -0.443847 3.458358 1.937584 -1.105395 -4.461694 -0.375599 -2.597716 1.103249 -0.991820 -2.065099 0.565345 0.479388 0.606682 
-0.855111 -0.040800 -0.443847 3.203642 1.434479 -0.952238 -4.243142 -0.399411 -2.571576 1.166257 -0.423135 -2.297166 0.226982 0.126582 1.133176 
-0.855111 -0.040800 -0.443847 2.932098 0.901382 -0.804090 -4.032166 -0.460991 -2.553701 1.296780 0.148673 -2.678996 -0.162949 -0.300984 1.806381 
-0.855111 -0.040800 -0.443847 2.823238 0.368170 -0.646151 -4.063343 -0.558777 -2.453642 1.284077 0.610305 -3.077644 -0.418110 -0.516022 2.236935 
-0.855111 -0.040800 -0.443847 2.661676 -0.145190 -0.454368 -3.999789 -0.629624 -2.284517 1.419574 1.085174 -3.521035 -0.760634 -0.771592 2.664259 
-0.855111 -0.040800 -0.443847 2.505820 -0.641171 -0.232138 -3.944054 -0.670696 -2.042764 1.527591 1.550180 -3.947426 -1.065335 -1.007194 3.013322 
-0.855111 -0.040800 -0.443847 2.381853 -1.115974 0.016575 -3.951884 -0.687013 -1.726194 1.606035 2.003903 -4.331212 -1.286323 -1.195551 3.266634 
-0.855111 -0.040800 -0.443847 2.283652 -1.559761 0.286532 -4.032139 -0.691319 -1.333794 1.827592 2.463298 -4.686589 -1.455782 -1.344822 3.462863 
-0.855111 -0.040800 -0.443847 2.114607 -1.925147 0.574337 -4.035874 -0.704863 -0.969708 1.812318 2.826572 -4.927937 -1.534800 -1.548683 3.618782 
-0.855111 -0.040800 -0.443847 1.838494 -2.210360 0.847467 -3.870284 -0.702281 -0.666304 1.679954 3.042835 -5.038250 -1.557254 -1.743059 3.707415 
-0.855111 -0.040800 -0.443847 1.493449 -2.430176 1.104283 -3.581249 -0.664676 -0.409267 1.530493 3.178289 -5.025779 -1.509575 -1.889384 3.680826 
-0.855111 -0.040800 -0.443847 1.089177 -2.590896 1.341033 -3.178474 -0.590745 -0.197542 1.359905 3.253285 -4.906820 -1.395868 -1.994642 3.551992 
-0.855111 -0.040800 -0.443847 0.606838 -2.690619 1.551594 -2.635236 -0.496480 -0.043178 1.059824 3.242367 -4.705251 -1.237679 -2.111142 3.394833 
-0.855111 -0.040800 -0.443847 0.096013 -2.720617 1.717073 -2.006092 -0.402215 0.034529 0.805014 3.130588 -4.426484 -0.999131 -2.189027 3.182872 
-0.855111 -0.040800 -0.443847 -0.317515 -2.702662 1.841947 -1.525851 -0.327185 0.102120 0.710197 3.008045 -4.104883 -0.788250 -2.168905 2.943434 
-0.855111 -0.040800 -0.443847 -0.656510 -2.645489 1.928459 -1.163918 -0.271826 0.137054 0.685447 2.873615 -3.784419 -0.598807 -2.116986 2.720732 
-0.855111 -0.040800 -0.443847 -0.949410 -2.555303 1.979410 -0.863644 -0.229832 0.136162 0.665949 2.713495 -3.489079 -0.427718 -2.056237 2.525535 
-0.855111 -0.040800 -0.443847 -1.230373 -2.435704 1.998349 -0.542368 -0.187901 0.115595 0.612215 2.501435 -3.222863 -0.274578 -1.966640 2.334803 
-0.855111 -0.040800 -0.443847 -1.496977 -2.303810 1.989733 -0.245701 -0.165239 -0.012410 0.742823 2.300058 -2.964321 -0.176242 -1.958276 2.236815 
-0.855111 -0.040800 -0.443847 -1.672165 -2.144457 1.945181 -0.078414 -0.189163 -0.161842 0.769633 2.072222 -2.727580 -0.057475 -1.943544 2.150674 
-0.855111 -0.040800 -0.443847 -1.692311 -1.969757 1.861251 -0.151422 -0.240156 -0.299774 0.908580 1.883473 -2.527628 0.079473 -1.920739 2.043019 
-0.855111 -0.040800 -0.443847 -1.604889 -1.779738 1.744007 -0.406077 -0.304222 -0.424162 1.186004 1.734888 -2.379373 0.213331 -1.907590 1.940416 
-0.855111 -0.040800 -0.443847 -1.568472 -1.561767 1.609949 -0.614273 -0.373841 -0.563223 1.439288 1.561280 -2.298850 0.303702 -1.940854 1.929457 
-0.855111 -0.040800 -0.443847 -1.341616 -1.365338 1.430267 -1.071467 -0.400002 -0.671520 1.566122 1.381833 -2.181928 0.482135 -1.900774 1.848293 
-0.855111 -0.040800 -0.443847 -1.041900 -1.133969 1.218755 -1.636047 -0.445963 -0.778129 1.678638 1.181614 -2.087585 0.633679 -1.847619 1.817254 
-0.855111 -0.040800 -0.443847 -0.694730 -0.881741 0.973003 -2.287621 -0.485524 -0.899698 1.970543 1.015634 -1.999180 0.777662 -1.794630 1.842371 
-0.855111 -0.040800 -0.443847 -0.336471 -0.617411 0.701934 -2.954089 -0.493911 -1.038147 2.340546 0.844225 -1.937847 0.928411 -1.746310 1.913122 
-0.855111 -0.040800 -0.443847 -0.014536 -0.344030 0.425924 -3.511571 -0.448522 -1.180706 2.392295 0.531780 -1.963709 1.095293 -1.698481 2.002417 
-0.855111 -0.040800 -0.443847 0.459044 0.071584 0.106061 -4.161896 -0.446646 -1.231642 2.669553 0.113969 -1.997254 1.381315 -1.519104 1.818023 
-0.855111 -0.040800 -0.443847 1.327586 0.621491 -0.255913 -5.457626 -0.585743 -1.250234 3.051798 -0.387249 -1.936212 1.744518 -1.319109 1.459125 
-0.855111 -0.040800 -0.443847 2.226660 1.224617 -0.609305 -6.749526 -0.731120 -1.309628 3.268664 -0.948254 -1.860952 2.046289 -1.107370 1.029546 
-0.855111 -0.040800 -0.443847 3.070000 1.855939 -0.935552 -7.877155 -0.858329 -1.413435 3.347459 -1.536770 -1.782136 2.272481 -0.876831 0.535801 
-0.855111 -0.040800 -0.443847 4.051297 2.540892 -1.256853 -9.168821 -1.055604 -1.504097 3.614900 -2.110087 -1.633395 2.534609 -0.607999 -0.114218 
-0.855111 -0.040800 -0.443847 4.905786 3.218579 -1.526669 -10.158499 -1.230308 -1.608705 3.636923 -2.609289 -1.716744 2.684895 -0.362221 -0.633305 
-0.855111 -0.040800 -0.443847 5.445463 3.798237 -1.715315 -10.651751 -1.309212 -1.774142 3.461317 -3.004475 -1.842968 2.737188 -0.190859 -0.965999 
-0.855111 -0.040800 -0.443847 5.638188 4.240818 -1.826391 -10.613389 -1.276391 -1.971049 3.185364 -3.294160 -2.012543 2.712784 -0.070359 -1.124206 
-0.855111 -0.040800 -0.443847 5.561919 4.515643 -1.877824 -10.180493 -1.141132 -2.172240 2.856180 -3.460260 -2.206033 2.649436 0.030666 -1.144758 
-0.855111 -0.040800 -0.443847 5.405149 4.600616 -1.903800 -9.662808 -0.935328 -2.351010 2.470885 -3.468226 -2.384837 2.601044 0.151987 -1.089241 
-0.855111 -0.040800 -0.443847 5.053850 4.517466 -1.868781 -8.851970 -0.660178 -2.523144 2.049587 -3.466411 -2.455802 2.495502 0.208539 -1.054755 
-0.855111 -0.040800 -0.443847 4.711079 4.369351 -1.832995 -8.084198 -0.380752 -2.671687 1.782649 -3.405809 -2.454814 2.399251 0.308204 -0.993225 
-0.855111 -0.040800 -0.443847 4.416741 4.167917 -1.797990 -7.414668 -0.109943 -2.772340 1.568379 -3.316854 -2.461792 2.276417 0.406159 -0.904678 
-0.855111 -0.040800 -0.443847 4.182024 3.923862 -1.765121 -6.863816 0.143541 -2.822734 1.371272 -3.207049 -2.500570 2.123313 0.496349 -0.785351 
-0.855111 -0.040800 -0.443847 3.989428 3.646871 -1.735800 -6.417057 0.374297 -2.843018 1.221851 -3.061647 -2.538774 1.968296 0.611572 -0.627576 
-0.855111 -0.040800 -0.443847 3.747284 3.339881 -1.689450 -5.961678 0.562686 -2.862600 1.105147 -2.915063 -2.602504 1.772598 0.657241 -0.376070 
-0.855111 -0.040800 -0.443847 3.492893 3.041399 -1.631987 -5.495273 0.684142 -2.852020 0.993940 -2.760044 -2.669267 1.589285 0.648060 -0.105990 
-0.855111 -0.040800 -0.443847 3.271012 2.739644 -1.562118 -5.086309 0.748284 -2.804370 0.926315 -2.581712 -2.755719 1.433920 0.604285 0.184967 
-0.855111 -0.040800 -0.443847 3.092432 2.431106 -1.473056 -4.759094 0.760651 -2.700276 0.934070 -2.370257 -2.951217 1.274705 0.529732 0.524494 
-0.855111 -0.040800 -0.443847 2.934053 2.120425 -1.352874 -4.493738 0.722830 -2.508069 1.043543 -2.121420 -3.417892 1.032855 0.410849 0.965395 
-0.855111 -0.040800 -0.443847 2.787211 1.781431 -1.238339 -4.304278 0.673424 -2.298220 1.004264 -1.865854 -3.961095 0.891659 0.205162 1.463752 
-0.855111 -0.040800 -0.443847 2.665734 1.416187 -1.142463 -4.168951 0.623435 -2.099271 1.043038 -1.550469 -4.501772 0.730069 0.041337 2.017267 
-0.855111 -0.040800 -0.443847 2.580909 1.035740 -1.071111 -4.079459 0.561525 -1.931006 1.144466 -1.224306 -5.040603 0.678237 -0.194639 2.585435 
-0.855111 -0.040800 -0.443847 2.443086 0.645967 -1.014753 -3.875986 0.503827 -1.809956 1.166450 -0.925286 -5.552609 0.700876 -0.562463 3.173175 
-0.855111 -0.040800 -0.443847 2.061991 0.247243 -0.950246 -3.247339 0.494381 -1.749378 0.840212 -0.677620 -5.985701 0.596623 -1.071848 3.829089 
-0.855111 -0.040800 -0.443847 1.597504 -0.157686 -0.822567 -2.262933 0.589436 -1.694074 0.318475 -0.572868 -6.332283 0.703048 -1.227602 4.070493 
-0.855111 -0.040800 -0.443847 1.338362 -0.520181 -0.745970 -1.718758 0.670854 -1.700276 0.027249 -0.490799 -6.399837 0.998755 -1.568170 4.222080 
-0.855111 -0.040800 -0.443847 1.181265 -0.845274 -0.672153 -1.421965 0.757220 -1.659812 -0.092435 -0.356770 -6.393993 1.208206 -1.778823 4.361685 
-0.855111 -0.040800 -0.443847 0.958037 -1.116770 -0.568675 -1.063091 0.837018 -1.609832 -0.163606 -0.204579 -6.368420 1.297307 -1.885695 4.529141 
-0.855111 -0.040800 -0.443847 0.435157 -1.297493 -0.418887 -0.215536 0.865870 -1.732464 -0.373932 -0.178940 -6.225009 1.475474 -2.254527 4.731564 
-0.855111 -0.040800 -0.443847 0.221609 -1.460240 -0.302834 0.146416 0.960081 -1.751366 -0.533409 -0.197526 -5.806661 1.618685 -2.116472 4.626035 
-0.855111 -0.040800 -0.443847 0.011394 -1.569990 -0.153704 0.528638 0.995849 -1.724509 -0.658385 -0.140653 -5.489372 1.596100 -1.975948 4.481037 
-0.855111 -0.040800 -0.443847 -0.174083 -1.643386 -0.016250 0.902776 0.995452 -1.676079 -0.827844 -0.106025 -5.224067 1.581273 -1.849100 4.313403 
-0.855111 -0.040800 -0.443847 -0.318707 -1.700215 0.085758 1.241520 0.986613 -1.633953 -1.017348 -0.130277 -4.964686 1.627794 -1.731611 4.133419 
-0.855111 -0.040800 -0.443847 -0.411545 -1.763681 0.149499 1.518531 1.002485 -1.629760 -1.099818 -0.187750 -4.667792 1.669516 -1.597931 3.945522 
-0.855111 -0.040800 -0.443847 -0.435935 -1.781820 0.144789 1.717593 1.001519 -1.671475 -1.401226 -0.364927 -4.299774 1.794034 -1.512046 3.713582 
-0.855111 -0.040800 -0.443847 -0.419807 -1.761815 0.119927 1.827129 0.991296 -1.740845 -1.529544 -0.552107 -3.947530 1.887178 -1.409181 3.521757 
-0.855111 -0.040800 -0.443847 -0.350631 -1.707611 0.074486 1.817563 0.966871 -1.822796 -1.487654 -0.725182 -3.618205 1.968787 -1.307600 3.346644 
-0.855111 -0.040800 -0.443847 -0.241896 -1.625113 0.010210 1.717746 0.938167 -1.901703 -1.327362 -0.881683 -3.320666 2.045021 -1.208857 3.183725 
-0.855111 -0.040800 -0.443847 -0.133130 -1.522100 -0.068872 1.614968 0.929647 -1.961253 -1.149071 -1.041441 -3.065801 2.108425 -1.097613 3.047378 
-0.855111 -0.040800 -0.443847 0.071306 -1.406706 -0.140664 1.317445 0.896736 -1.998000 -1.056807 -1.203640 -2.889160 2.121826 -0.906319 2.854491 
-0.855111 -0.040800 -0.443847 0.241962 -1.240202 -0.212504 1.070733 0.820917 -2.083790 -1.027123 -1.468748 -2.736031 2.160202 -0.818681 2.649909 
-0.855111 -0.040800 -0.443847 0.479699 -1.036993 -0.310499 0.675181 0.702904 -2.171519 -0.948986 -1.753871 -2.664788 2.210208 -0.688446 2.428785 
-0.855111 -0.040800 -0.443847 0.827607 -0.804353 -0.440035 0.071335 0.550160 -2.247738 -0.770698 -2.020460 -2.639737 2.281921 -0.518666 2.166785 
-0.855111 -0.040800 -0.443847 1.270862 -0.542058 -0.585441 -0.660200 0.376854 -2.331932 -0.498446 -2.274107 -2.531677 2.407446 -0.462050 1.820265 
-0.855111 -0.040800 -0.443847 1.838694 -0.237912 -0.784391 -1.579072 0.221104 -2.412918 -0.236267 -2.515260 -2.372109 2.541134 -0.429082 1.482145 
-0.855111 -0.040800 -0.443847 2.619025 0.086432 -1.018196 -2.756525 0.024615 -2.516468 -0.036399 -2.767529 -2.090528 2.755686 -0.382444 1.062989 
-0.855111 -0.040800 -0.443847 3.547442 0.434469 -1.291289 -4.085889 -0.212987 -2.592832 0.221070 -2.977014 -1.830181 2.931756 -0.379800 0.711317 
-0.855111 -0.040800 -0.443847 4.536440 0.809688 -1.594148 -5.405561 -0.473875 -2.645090 0.529147 -3.177308 -1.677873 3.050799 -0.434861 0.498136 
-0.855111 -0.040800 -0.443847 5.475183 1.216692 -1.902774 -6.499391 -0.719134 -2.727021 0.755187 -3.490182 -1.664103 3.195967 -0.519634 0.416552 
-0.855111 -0.040800 -0.443847 6.469715 1.609557 -2.216374 -7.499792 -0.937695 -2.749681 0.584333 -3.905788 -1.888045 3.401371 -0.594922 0.306465 
-0.855111 -0.040800 -0.443847 7.302247 1.967396 -2.471950 -8.174063 -1.110228 -2.765802 0.338996 -4.292475 -2.282235 3.564344 -0.706358 0.299930 
-0.855111 -0.040800 -0.443847 7.888722 2.231284 -2.669298 -8.425147 -1.168615 -2.803234 -0.073321 -4.667525 -2.758812 3.670835 -0.774918 0.357414 
-0.855111 -0.040800 -0.443847 8.226344 2.374157 -2.811327 -8.308746 -1.105460 -2.866777 -0.591043 -4.984213 -3.240709 3.728803 -0.804630 0.458321 
-0.855111 -0.040800 -0.443847 8.394110 2.400071 -2.906359 -8.033309 -0.974186 -2.939030 -0.997316 -5.135469 -3.657997 3.768498 -0.882323 0.601428 
-0.855111 -0.040800 -0.443847 8.269249 2.265391 -2.967044 -7.378905 -0.708714 -3.077294 -1.407828 -5.247533 -3.992636 3.837201 -0.886552 0.812638 
-0.855111 -0.040800 -0.443847 7.838365 2.046658 -2.931389 -6.386817 -0.376847 -3.220459 -1.838844 -5.238564 -4.316972 3.732778 -0.788485 1.068549 
-0.855111 -0.040800 -0.443847 7.488679 1.808333 -2.889601 -5.691904 -0.094166 -3.318365 -1.957752 -5.162792 -4.606855 3.650343 -0.652528 1.285458 
-0.855111 -0.040800 -0.443847 7.342690 1.583838 -2.875789 -5.437013 0.110315 -3.354586 -1.810450 -5.068488 -4.842567 3.639337 -0.491012 1.436707 
-0.855111 -0.040800 -0.443847 7.258808 1.374385 -2.871046 -5.272070 0.290297 -3.355663 -1.820953 -4.993194 -5.006928 3.602802 -0.265839 1.553515 
-0.855111 -0.040800 -0.443847 7.037795 1.146059 -2.773774 -4.858652 0.496884 -3.266822 -1.710498 -4.867403 -5.302760 3.426364 0.078835 1.739468 
-0.855111 -0.040800 -0.443847 6.763489 0.914119 -2.655041 -4.404796 0.681856 -3.162636 -1.711492 -4.741038 -5.675859 3.257832 0.352985 2.001169 
-0.855111 -0.040800 -0.443847 6.423043 0.685255 -2.534135 -3.888027 0.858246 -3.061075 -1.691676 -4.631034 -5.989061 3.118510 0.563386 2.245324 
-0.855111 -0.040800 -0.443847 6.038476 0.461245 -2.413284 -3.353009 1.012926 -2.980194 -1.601321 -4.519103 -6.183019 3.002467 0.694806 2.435463 
-0.855111 -0.040800 -0.443847 5.666863 0.238903 -2.277385 -2.911506 1.106351 -2.937114 -1.472453 -4.350450 -6.275883 2.875990 0.709316 2.592017 
-0.855111 -0.040800 -0.443847 5.225265 0.017743 -2.103652 -2.413779 1.181417 -2.871067 -1.716902 -4.192899 -6.335701 2.701313 0.720795 2.684284 
-0.855111 -0.040800 -0.443847 4.790098 -0.194181 -1.859009 -2.011549 1.197556 -2.863286 -1.547137 -3.984237 -6.173307 2.576687 0.493283 2.693244 
-0.855111 -0.040800 -0.443847 4.346357 -0.413735 -1.536336 -1.626083 1.169093 -2.827489 -1.516167 -3.687459 -5.836382 2.400453 0.115043 2.532442 
-0.855111 -0.040800 -0.443847 3.856567 -0.615512 -1.135242 -1.182810 1.081022 -2.731836 -1.722067 -3.336615 -5.388063 2.162810 -0.406487 2.168464 
-0.855111 -0.040800 -0.443847 3.259959 -0.732272 -0.661283 -0.611123 0.888249 -2.597988 -1.806515 -3.031515 -4.912229 1.945640 -1.145620 1.621577 
